NORAD_CAT_ID,OBJECT_NAME,OBJECT_TYPE,EPOCH,MEAN_MOTION,ECCENTRICITY,INCLINATION,RA_OF_ASC_NODE,ARG_OF_PERICENTER,MEAN_ANOMALY,BSTAR,MEAN_MOTION_DOT,MEAN_MOTION_DDOT,TLE_LINE0,TLE_LINE1,TLE_LINE2,SEMIMAJOR_AXIS,PERIOD,APOGEE,PERIGEE,DECAYED
54177.0,STARLINK-5186,PAYLOAD,2024-03-14 20:35:58,15.08837685,0.0001378,53.218,17.9443,100.8438,259.2709,1.1404e-05,-1.06e-06,0.0,0 STARLINK-5186,1 54177U 22141W   24074.85831843 -.00000106  00000-0  11404-4 0  9993,2 54177  53.2180  17.9443 0001378 100.8438 259.2709 15.08837685 76431,6917.887,95.438,540.706,538.799,0.0
54177.0,STARLINK-5186,PAYLOAD,2024-03-15 02:57:30,15.08842121,0.0001342,53.2183,16.7552,100.26,259.8543,5.3437e-05,5.63e-06,0.0,0 STARLINK-5186,1 54177U 22141W   24075.12327460  .00000563  00000-0  53437-4 0  9997,2 54177  53.2183  16.7552 0001342 100.2600 259.8543 15.08842121 76475,6917.874,95.437,540.667,538.811,0.0
54177.0,STARLINK-5186,PAYLOAD,2024-03-15 20:26:45,15.08837818,0.0001358,53.2182,13.4836,101.0661,259.0484,4.6881e-05,4.58e-06,0.0,0 STARLINK-5186,1 54177U 22141W   24075.85191891  .00000458  00000-0  46881-4 0  9992,2 54177  53.2182  13.4836 0001358 101.0661 259.0484 15.08837818 76581,6917.887,95.438,540.692,538.813,0.0
54177.0,STARLINK-5186,PAYLOAD,2024-03-16 01:12:54,15.08841924,0.0001358,53.2183,12.5915,98.6037,261.5109,5.9315e-05,6.56e-06,0.0,0 STARLINK-5186,1 54177U 22141W   24076.05063620  .00000656  00000-0  59315-4 0  9999,2 54177  53.2183  12.5915 0001358  98.6037 261.5109 15.08841924 76617,6917.875,95.437,540.679,538.8,0.0
54177.0,STARLINK-5186,PAYLOAD,2024-03-16 20:17:33,15.08840167,0.0001455,53.2187,9.0295,107.2758,252.8393,1.2718e-06,-2.68e-06,0.0,0 STARLINK-5186,1 54177U 22141W   24076.84552180 -.00000268  00000-0  12718-5 0  9997,2 54177  53.2187   9.0295 0001455 107.2758 252.8393 15.08840167 76737,6917.88,95.438,540.751,538.738,0.0
54177.0,STARLINK-5186,PAYLOAD,2024-03-17 01:03:42,15.08838869,0.0001466,53.219,8.1377,99.2924,260.8234,6.4544e-05,7.39e-06,0.0,0 STARLINK-5186,1 54177U 22141W   24077.04424113  .00000739  00000-0  64544-4 0  9999,2 54177  53.2190   8.1377 0001466  99.2924 260.8234 15.08838869 76761,6917.884,95.438,540.763,538.735,0.0
54177.0,STARLINK-5186,PAYLOAD,2024-03-17 18:32:56,15.08839916,0.0001636,53.219,4.8663,96.9884,263.1294,8.998e-05,1.144e-05,0.0,0 STARLINK-5186,1 54177U 22141W   24077.77288018  .00001144  00000-0  89980-4 0  9993,2 54177  53.2190   4.8663 0001636  96.9884 263.1294 15.08839916 76878,6917.881,95.438,540.877,538.614,0.0
54177.0,STARLINK-5186,PAYLOAD,2024-03-18 04:05:15,15.08849165,0.0001512,53.2187,3.081,99.3585,260.7578,0.00014602,2.037e-05,0.0,0 STARLINK-5186,1 54177U 22141W   24078.17031305  .00002037  00000-0  14602-3 0  9993,2 54177  53.2187   3.0810 0001512  99.3585 260.7578 15.08849165 76939,6917.852,95.437,540.763,538.671,0.0
54177.0,STARLINK-5186,PAYLOAD,2024-03-19 03:56:02,15.08842494,0.0001353,53.2194,358.6214,98.8281,261.2864,7.5556e-05,9.15e-06,0.0,0 STARLINK-5186,1 54177U 22141W   24079.16391993  .00000915  00000-0  75556-4 0  9994,2 54177  53.2194 358.6214 0001353  98.8281 261.2864 15.08842494 77083,6917.873,95.437,540.674,538.802,0.0
54177.0,STARLINK-5186,PAYLOAD,2024-03-20 00:36:02,15.08856712,0.0001693,53.2184,354.7525,66.8276,293.2895,0.00018176,2.607e-05,0.0,0 STARLINK-5186,1 54177U 22141W   24080.02502913  .00002607  00000-0  18176-3 0  9991,2 54177  53.2184 354.7525 0001693  66.8276 293.2895 15.08856712 77212,6917.829,95.436,540.865,538.523,0.0
54177.0,STARLINK-5186,PAYLOAD,2024-03-20 03:46:47,15.08870413,0.0001371,53.2187,354.1572,113.7173,246.3963,0.00037591,5.705e-05,0.0,0 STARLINK-5186,1 54177U 22141W   24080.15749936  .00005705  00000-0  37591-3 0  9997,2 54177  53.2187 354.1572 0001371 113.7173 246.3963 15.08870413 77233,6917.787,95.436,540.601,538.704,0.0
54177.0,STARLINK-5186,PAYLOAD,2024-03-20 21:16:04,15.08830379,0.0001106,53.219,350.8918,109.0281,251.0831,-2.6601e-05,-7.11e-06,0.0,0 STARLINK-5186,1 54177U 22141W   24080.88616654 -.00000711  00000-0 -26601-4 0  9992,2 54177  53.2190 350.8918 0001106 109.0281 251.0831 15.08830379 77344,6917.91,95.438,540.54,539.01,0.0
54177.0,STARLINK-5186,PAYLOAD,2024-03-20 22:51:27,15.08830251,0.0001204,53.2185,350.5939,101.8605,258.2522,-7.9121e-05,-1.546e-05,0.0,0 STARLINK-5186,1 54177U 22141W   24080.95240256 -.00001546  00000-0 -79121-4 0  9993,2 54177  53.2185 350.5939 0001204 101.8605 258.2522 15.08830251 77353,6917.91,95.438,540.608,538.942,0.0
54177.0,STARLINK-5186,PAYLOAD,2024-03-21 03:37:36,15.08834296,0.0001144,53.2184,349.6966,90.9784,269.1339,1.8477e-05,6e-08,0.0,0 STARLINK-5186,1 54177U 22141W   24081.15112183  .00000006  00000-0  18477-4 0  9998,2 54177  53.2184 349.6966 0001144  90.9784 269.1339 15.08834296 77383,6917.898,95.438,540.554,538.971,0.0
54177.0,STARLINK-5186,PAYLOAD,2024-03-21 21:06:50,15.08852356,0.0001208,53.2183,346.426,84.5544,275.5586,2.7093e-05,1.43e-06,0.0,0 STARLINK-5186,1 54177U 22141W   24081.87975479  .00000143  00000-0  27093-4 0  9998,2 54177  53.2183 346.4260 0001208  84.5544 275.5586 15.08852356 77492,6917.843,95.437,540.543,538.872,0.0
54177.0,STARLINK-5186,PAYLOAD,2024-03-21 22:42:14,15.0885146,0.000127,53.2182,346.1288,83.8766,276.237,0.00025365,3.752e-05,0.0,0 STARLINK-5186,1 54177U 22141W   24081.94599666  .00003752  00000-0  25365-3 0  9994,2 54177  53.2182 346.1288 0001270  83.8766 276.2370 15.08851460 77501,6917.845,95.437,540.589,538.832,0.0
54177.0,STARLINK-5186,PAYLOAD,2024-03-22 00:17:37,15.08852529,0.0001459,53.2193,345.8297,93.5196,266.5963,0.0005469,8.43e-05,0.0,0 STARLINK-5186,1 54177U 22141W   24082.01223740  .00008430  00000-0  54690-3 0  9991,2 54177  53.2193 345.8297 0001459  93.5196 266.5963 15.08852529 77511,6917.842,95.437,540.716,538.698,0.0
54177.0,STARLINK-5186,PAYLOAD,2024-03-22 20:57:38,15.08817787,0.0001115,53.2181,341.9666,86.8604,273.2516,-0.00064814,-0.00010582,0.0,0 STARLINK-5186,1 54177U 22141W   24082.87335765 -.00010582  00000-0 -64814-3 0  9998,2 54177  53.2181 341.9666 0001115  86.8604 273.2516 15.08817787 77643,6917.948,95.439,540.585,539.042,0.0
54177.0,STARLINK-5186,PAYLOAD,2024-03-22 22:33:00,15.08818749,0.0001308,53.218,341.6688,108.3207,251.7928,-0.00096634,-0.00015625,0.0,0 STARLINK-5186,1 54177U 22141W   24082.93959327 -.00015625  00000-0 -96634-3 0  9999,2 54177  53.2180 341.6688 0001308 108.3207 251.7928 15.08818749 77654,6917.945,95.439,540.715,538.905,0.0
54177.0,STARLINK-5186,PAYLOAD,2024-03-23 00:08:24,15.08820779,0.0001393,53.2186,341.3701,108.0196,252.0948,-0.00084404,-0.00013688,0.0,0 STARLINK-5186,1 54177U 22141W   24083.00583385 -.00013688  00000-0 -84404-3 0  9994,2 54177  53.2186 341.3701 0001393 108.0196 252.0948 15.08820779 77664,6917.939,95.439,540.768,538.84,0.0
54177.0,STARLINK-5186,PAYLOAD,2024-03-23 20:48:25,15.08846627,9.72e-05,53.2169,337.4988,94.9836,265.1267,0.0014728,0.00023234,0.0,0 STARLINK-5186,1 54177U 22141W   24083.86696091  .00023234  00000-0  14728-2 0  9994,2 54177  53.2169 337.4988 0000972  94.9836 265.1267 15.08846627 77797,6917.86,95.437,540.398,539.053,0.0
54177.0,STARLINK-5186,PAYLOAD,2024-03-23 22:23:48,15.08848989,0.000173,53.2178,337.2083,128.581,231.5337,0.0011931,0.00018756,0.0,0 STARLINK-5186,1 54177U 22141W   24083.93319918  .00018756  00000-0  11931-2 0  9998,2 54177  53.2178 337.2083 0001730 128.5810 231.5337 15.08848989 77800,6917.853,95.437,540.915,538.521,0.0
54177.0,STARLINK-5186,PAYLOAD,2024-03-24 09:31:30,15.08859933,0.0001278,53.2173,335.1243,74.0904,286.0229,0.0011257,0.00017683,0.0,0 STARLINK-5186,1 54177U 22141W   24084.39687652  .00017683  00000-0  11257-2 0  9991,2 54177  53.2173 335.1243 0001278  74.0904 286.0229 15.08859933 77879,6917.819,95.436,540.569,538.8,0.0
54177.0,STARLINK-5186,PAYLOAD,2024-03-24 20:39:12,15.08874601,0.0001079,53.2164,333.0434,110.6116,249.4992,0.0041375,0.00066242,0.0,0 STARLINK-5186,1 54177U 22141W   24084.86056050  .00066242  00000-0  41375-2 0  9994,2 54177  53.2164 333.0434 0001079 110.6116 249.4992 15.08874601 77946,6917.775,95.435,540.386,538.893,0.0
54177.0,STARLINK-5186,PAYLOAD,2024-03-24 22:14:35,15.08884137,0.0001136,53.2174,332.7504,103.0621,257.0498,0.0055172,0.00088732,0.0,0 STARLINK-5186,1 54177U 22141W   24084.92679963  .00088732  00000-0  55172-2 0  9993,2 54177  53.2174 332.7504 0001136 103.0621 257.0498 15.08884137 77954,6917.745,95.435,540.396,538.825,0.0
54177.0,STARLINK-5186,PAYLOAD,2024-03-25 09:22:17,15.08862701,0.000134,53.2168,330.6667,68.1096,292.0039,0.001964,0.00031127,0.0,0 STARLINK-5186,1 54177U 22141W   24085.39048039  .00031127  00000-0  19640-2 0  9995,2 54177  53.2168 330.6667 0001340  68.1096 292.0039 15.08862701 78020,6917.811,95.436,540.603,538.749,0.0
54177.0,STARLINK-5186,PAYLOAD,2024-03-25 20:30:00,15.08823491,0.0001,53.2163,328.5841,75.6936,284.4168,0.00084439,0.0001317,0.0,0 STARLINK-5186,1 54177U 22141W   24085.85416919  .00013170  00000-0  84439-3 0  9999,2 54177  53.2163 328.5841 0001000  75.6936 284.4168 15.08823491 78092,6917.931,95.439,540.488,539.104,0.0
54177.0,STARLINK-5186,PAYLOAD,2024-03-25 22:05:23,15.0882664,0.0001124,53.2164,328.2869,75.1289,284.9828,0.0013859,0.00021829,0.0,0 STARLINK-5186,1 54177U 22141W   24085.92041085  .00021829  00000-0  13859-2 0  9992,2 54177  53.2164 328.2869 0001124  75.1289 284.9828 15.08826640 78102,6917.921,95.438,540.564,539.009,0.0
54177.0,STARLINK-5186,PAYLOAD,2024-03-26 09:13:05,15.08843819,0.0001152,53.2161,326.2084,76.7926,283.3195,0.0023471,0.00037268,0.0,0 STARLINK-5186,1 54177U 22141W   24086.38409717  .00037268  00000-0  23471-2 0  9998,2 54177  53.2161 326.2084 0001152  76.7926 283.3195 15.08843819 78176,6917.869,95.437,540.531,538.937,0.0
54177.0,STARLINK-5186,PAYLOAD,2024-03-26 21:56:11,15.08842451,0.0001127,53.2154,323.8307,76.2468,283.865,0.0010563,0.00016564,0.0,0 STARLINK-5186,1 54177U 22141W   24086.91401915  .00016564  00000-0  10563-2 0  9993,2 54177  53.2154 323.8307 0001127  76.2468 283.8650 15.08842451 78258,6917.873,95.437,540.518,538.958,0.0
